[
  {
    "OBJECT_NAME": "STARLINK-1713",
    "OBJECT_ID": "2020-062AM",
    "EPOCH": "2025-05-24T14:00:01.999872",
    "MEAN_MOTION": 15.42473544,
    "ECCENTRICITY": 0.0005259,
    "INCLINATION": 53.0499,
    "RA_OF_ASC_NODE": 181.9858,
    "ARG_OF_PERICENTER": 349.2099,
    "MEAN_ANOMALY": 21.8888,
    "EPHEMERIS_TYPE": 0,
    "CLASSIFICATION_TYPE": "U",
    "NORAD_CAT_ID": 46360,
    "ELEMENT_SET_NO": 999,
    "REV_AT_EPOCH": 26165,
    "BSTAR": 0.0028607,
    "MEAN_MOTION_DOT": 0.0012755,
    "MEAN_MOTION_DDOT": 0
  },
  {
    "OBJECT_NAME": "STARLINK-1726",
    "OBJECT_ID": "2020-062AP",
    "EPOCH": "2025-05-24T12:08:11.865696",
    "MEAN_MOTION": 15.06400152,
    "ECCENTRICITY": 0.0001248,
    "INCLINATION": 53.0536,
    "RA_OF_ASC_NODE": 189.8118,
    "ARG_OF_PERICENTER": 84.9135,
    "MEAN_ANOMALY": 275.1997,
    "EPHEMERIS_TYPE": 0,
    "CLASSIFICATION_TYPE": "U",
    "NORAD_CAT_ID": 46362,
    "ELEMENT_SET_NO": 999,
    "REV_AT_EPOCH": 26135,
    "BSTAR": -2.0155e-05,
    "MEAN_MOTION_DOT": -5.82e-06,
    "MEAN_MOTION_DDOT": 0
  },
  {
    "OBJECT_NAME": "STARLINK-1739",
    "OBJECT_ID": "2020-062AQ",
    "EPOCH": "2025-05-24T22:50:18.115584",
    "MEAN_MOTION": 16.41754812,
    "ECCENTRICITY": 0.00057,
    "INCLINATION": 53.0042,
    "RA_OF_ASC_NODE": 122.4777,
    "ARG_OF_PERICENTER": 257.9638,
    "MEAN_ANOMALY": 149.0193,
    "EPHEMERIS_TYPE": 0,
    "CLASSIFICATION_TYPE": "U",
    "NORAD_CAT_ID": 46363,
    "ELEMENT_SET_NO": 999,
    "REV_AT_EPOCH": 26248,
    "BSTAR": 0.00066942,
    "MEAN_MOTION_DOT": 0.11517089,
    "MEAN_MOTION_DDOT": 1.2393e-05
  },
  {
    "OBJECT_NAME": "STARLINK-1651",
    "OBJECT_ID": "2020-062AT",
    "EPOCH": "2025-05-24T12:45:21.495456",
    "MEAN_MOTION": 15.06395611,
    "ECCENTRICITY": 0.0001315,
    "INCLINATION": 53.054,
    "RA_OF_ASC_NODE": 189.6966,
    "ARG_OF_PERICENTER": 92.8291,
    "MEAN_ANOMALY": 267.2849,
    "EPHEMERIS_TYPE": 0,
    "CLASSIFICATION_TYPE": "U",
    "NORAD_CAT_ID": 46366,
    "ELEMENT_SET_NO": 999,
    "REV_AT_EPOCH": 26135,
    "BSTAR": 7.3267e-05,
    "MEAN_MOTION_DOT": 8.1e-06,
    "MEAN_MOTION_DDOT": 0
  },
  {
    "OBJECT_NAME": "STARLINK-1689",
    "OBJECT_ID": "2020-062AZ",
    "EPOCH": "2025-05-24T14:00:01.999872",
    "MEAN_MOTION": 15.5505956,
    "ECCENTRICITY": 0.0007201,
    "INCLINATION": 53.0365,
    "RA_OF_ASC_NODE": 193.2386,
    "ARG_OF_PERICENTER": 319.2402,
    "MEAN_ANOMALY": 317.9727,
    "EPHEMERIS_TYPE": 0,
    "CLASSIFICATION_TYPE": "U",
    "NORAD_CAT_ID": 46372,
    "ELEMENT_SET_NO": 999,
    "REV_AT_EPOCH": 26149,
    "BSTAR": 0.0024057,
    "MEAN_MOTION_DOT": 0.00167735,
    "MEAN_MOTION_DDOT": 0
  },
  {
    "OBJECT_NAME": "STARLINK-1724",
    "OBJECT_ID": "2020-062BC",
    "EPOCH": "2025-05-24T12:34:45.037632",
    "MEAN_MOTION": 15.06397151,
    "ECCENTRICITY": 0.0001077,
    "INCLINATION": 53.0535,
    "RA_OF_ASC_NODE": 189.7291,
    "ARG_OF_PERICENTER": 84.084,
    "MEAN_ANOMALY": 276.0272,
    "EPHEMERIS_TYPE": 0,
    "CLASSIFICATION_TYPE": "U",
    "NORAD_CAT_ID": 46375,
    "ELEMENT_SET_NO": 999,
    "REV_AT_EPOCH": 26135,
    "BSTAR": 0.00011423,
    "MEAN_MOTION_DOT": 1.42e-05,
    "MEAN_MOTION_DDOT": 0
  },
  {
    "OBJECT_NAME": "STARLINK-1742",
    "OBJECT_ID": "2020-062BD",
    "EPOCH": "2025-05-24T12:48:37.514592",
    "MEAN_MOTION": 15.19337351,
    "ECCENTRICITY": 0.0009829,
    "INCLINATION": 53.0499,
    "RA_OF_ASC_NODE": 184.7248,
    "ARG_OF_PERICENTER": 266.7296,
    "MEAN_ANOMALY": 93.2574,
    "EPHEMERIS_TYPE": 0,
    "CLASSIFICATION_TYPE": "U",
    "NORAD_CAT_ID": 46376,
    "ELEMENT_SET_NO": 999,
    "REV_AT_EPOCH": 26142,
    "BSTAR": 0.0024734,
    "MEAN_MOTION_DOT": 0.0005304,
    "MEAN_MOTION_DDOT": 0
  },
  {
    "OBJECT_NAME": "STARLINK-1769",
    "OBJECT_ID": "2020-062BK",
    "EPOCH": "2025-05-24T13:17:12.062112",
    "MEAN_MOTION": 15.06396327,
    "ECCENTRICITY": 0.000123,
    "INCLINATION": 53.0543,
    "RA_OF_ASC_NODE": 189.6029,
    "ARG_OF_PERICENTER": 84.9203,
    "MEAN_ANOMALY": 275.1927,
    "EPHEMERIS_TYPE": 0,
    "CLASSIFICATION_TYPE": "U",
    "NORAD_CAT_ID": 46382,
    "ELEMENT_SET_NO": 999,
    "REV_AT_EPOCH": 26136,
    "BSTAR": 9.763e-05,
    "MEAN_MOTION_DOT": 1.173e-05,
    "MEAN_MOTION_DDOT": 0
  },
  {
    "OBJECT_NAME": "STARLINK-1770",
    "OBJECT_ID": "2020-062BL",
    "EPOCH": "2025-05-24T12:57:57.349440",
    "MEAN_MOTION": 15.06410805,
    "ECCENTRICITY": 0.0001252,
    "INCLINATION": 53.0539,
    "RA_OF_ASC_NODE": 234.6587,
    "ARG_OF_PERICENTER": 89.9623,
    "MEAN_ANOMALY": 270.151,
    "EPHEMERIS_TYPE": 0,
    "CLASSIFICATION_TYPE": "U",
    "NORAD_CAT_ID": 46383,
    "ELEMENT_SET_NO": 999,
    "REV_AT_EPOCH": 26072,
    "BSTAR": 0.00023063,
    "MEAN_MOTION_DOT": 3.156e-05,
    "MEAN_MOTION_DDOT": 0
  },
  {
    "OBJECT_NAME": "STARLINK-1771",
    "OBJECT_ID": "2020-062BM",
    "EPOCH": "2025-05-24T11:27:43.392384",
    "MEAN_MOTION": 15.06405617,
    "ECCENTRICITY": 0.0001224,
    "INCLINATION": 53.0555,
    "RA_OF_ASC_NODE": 234.9407,
    "ARG_OF_PERICENTER": 91.4327,
    "MEAN_ANOMALY": 268.6802,
    "EPHEMERIS_TYPE": 0,
    "CLASSIFICATION_TYPE": "U",
    "NORAD_CAT_ID": 46384,
    "ELEMENT_SET_NO": 999,
    "REV_AT_EPOCH": 26071,
    "BSTAR": 0.00013113,
    "MEAN_MOTION_DOT": 1.673e-05,
    "MEAN_MOTION_DDOT": 0
  },
  {
    "OBJECT_NAME": "STARLINK-1648",
    "OBJECT_ID": "2020-070B",
    "EPOCH": "2025-05-24T10:08:06.766656",
    "MEAN_MOTION": 15.06397447,
    "ECCENTRICITY": 0.0001435,
    "INCLINATION": 53.0556,
    "RA_OF_ASC_NODE": 35.1924,
    "ARG_OF_PERICENTER": 88.7397,
    "MEAN_ANOMALY": 271.3756,
    "EPHEMERIS_TYPE": 0,
    "CLASSIFICATION_TYPE": "U",
    "NORAD_CAT_ID": 46533,
    "ELEMENT_SET_NO": 999,
    "REV_AT_EPOCH": 25590,
    "BSTAR": 8.462e-05,
    "MEAN_MOTION_DOT": 9.79e-06,
    "MEAN_MOTION_DDOT": 0
  },
  {
    "OBJECT_NAME": "STARLINK-1663",
    "OBJECT_ID": "2020-070D",
    "EPOCH": "2025-05-24T09:25:39.837216",
    "MEAN_MOTION": 15.06395679,
    "ECCENTRICITY": 0.0001447,
    "INCLINATION": 53.0565,
    "RA_OF_ASC_NODE": 35.3213,
    "ARG_OF_PERICENTER": 93.6301,
    "MEAN_ANOMALY": 266.4853,
    "EPHEMERIS_TYPE": 0,
    "CLASSIFICATION_TYPE": "U",
    "NORAD_CAT_ID": 46535,
    "ELEMENT_SET_NO": 999,
    "REV_AT_EPOCH": 25589,
    "BSTAR": 8.2267e-05,
    "MEAN_MOTION_DOT": 9.44e-06,
    "MEAN_MOTION_DDOT": 0
  },
  {
    "OBJECT_NAME": "STARLINK-1672",
    "OBJECT_ID": "2020-070F",
    "EPOCH": "2025-05-24T10:02:48.660000",
    "MEAN_MOTION": 15.06396552,
    "ECCENTRICITY": 0.0001264,
    "INCLINATION": 53.0565,
    "RA_OF_ASC_NODE": 35.2054,
    "ARG_OF_PERICENTER": 88.1531,
    "MEAN_ANOMALY": 271.9602,
    "EPHEMERIS_TYPE": 0,
    "CLASSIFICATION_TYPE": "U",
    "NORAD_CAT_ID": 46537,
    "ELEMENT_SET_NO": 999,
    "REV_AT_EPOCH": 25590,
    "BSTAR": 0.00012763,
    "MEAN_MOTION_DOT": 1.62e-05,
    "MEAN_MOTION_DDOT": 0
  },
  {
    "OBJECT_NAME": "STARLINK-1678",
    "OBJECT_ID": "2020-070G",
    "EPOCH": "2025-05-24T03:08:47.720832",
    "MEAN_MOTION": 15.06399114,
    "ECCENTRICITY": 0.0001363,
    "INCLINATION": 53.0565,
    "RA_OF_ASC_NODE": 36.4942,
    "ARG_OF_PERICENTER": 91.9581,
    "MEAN_ANOMALY": 268.1564,
    "EPHEMERIS_TYPE": 0,
    "CLASSIFICATION_TYPE": "U",
    "NORAD_CAT_ID": 46538,
    "ELEMENT_SET_NO": 999,
    "REV_AT_EPOCH": 25585,
    "BSTAR": 8.1517e-05,
    "MEAN_MOTION_DOT": 9.33e-06,
    "MEAN_MOTION_DDOT": 0
  }
]