STARLINK-1713           
1 46360U 20062AM  25144.58335648  .00127550  00000+0  28607-2 0  9991
2 46360  53.0499 181.9858 0005259 349.2099  21.8888 15.42473544261652
STARLINK-1726           
1 46362U 20062AP  25144.50569289 -.00000582  00000+0 -20155-4 0  9994
2 46362  53.0536 189.8118 0001248  84.9135 275.1997 15.06400152261357
STARLINK-1739           
1 46363U 20062AQ  25144.95159856  .11517089  12393-4  66942-3 0  9990
2 46363  53.0042 122.4777 0005700 257.9638 149.0193 16.41754812262488
STARLINK-1651           
1 46366U 20062AT  25144.53149879  .00000810  00000+0  73267-4 0  9994
2 46366  53.0540 189.6966 0001315  92.8291 267.2849 15.06395611261352
STARLINK-1689           
1 46372U 20062AZ  25144.58335648  .00167735  00000+0  24057-2 0  9998
2 46372  53.0365 193.2386 0007201 319.2402 317.9727 15.55059560261498
STARLINK-1724           
1 46375U 20062BC  25144.52413238  .00001420  00000+0  11423-3 0  9999
2 46375  53.0535 189.7291 0001077  84.0840 276.0272 15.06397151261355
STARLINK-1742           
1 46376U 20062BD  25144.53376753  .00053040  00000+0  24734-2 0  9994
2 46376  53.0499 184.7248 0009829 266.7296  93.2574 15.19337351261421
STARLINK-1769           
1 46382U 20062BK  25144.55361183  .00001173  00000+0  97630-4 0  9991
2 46382  53.0543 189.6029 0001230  84.9203 275.1927 15.06396327261365
STARLINK-1770           
1 46383U 20062BL  25144.54024710  .00003156  00000+0  23063-3 0  9994
2 46383  53.0539 234.6587 0001252  89.9623 270.1510 15.06410805260726
STARLINK-1771           
1 46384U 20062BM  25144.47758556  .00001673  00000+0  13113-3 0  9996
2 46384  53.0555 234.9407 0001224  91.4327 268.6802 15.06405617260717
STARLINK-1648           
1 46533U 20070B   25144.42230054  .00000979  00000+0  84620-4 0  9994
2 46533  53.0556  35.1924 0001435  88.7397 271.3756 15.06397447255904
STARLINK-1663           
1 46535U 20070D   25144.39282219  .00000944  00000+0  82267-4 0  9999
2 46535  53.0565  35.3213 0001447  93.6301 266.4853 15.06395679255898
STARLINK-1672           
1 46537U 20070F   25144.41861875  .00001620  00000+0  12763-3 0  9990
2 46537  53.0565  35.2054 0001264  88.1531 271.9602 15.06396552255909
STARLINK-1678           
1 46538U 20070G   25144.13110788  .00000933  00000+0  81517-4 0  9990
2 46538  53.0565  36.4942 0001363  91.9581 268.1564 15.06399114255852
